{"type": "FeatureCollection", "features": [ {"type": "Feature", "properties": {"norad_id": 47068, "name": "COSMOS 2251 DEB", "group": "cosmos-2251-debris", "lat": -53.79398375468183, "lon": 177.14655287867845, "alt_km": 709.4744170919203, "timestamp": "2025-12-14T11:29:50.459041+00:00", "meta": {"OBJECT_NAME": "COSMOS 2251 DEB", "OBJECT_ID": "1993-036BXY", "EPOCH": "2025-12-13T07:40:14.809440", "MEAN_MOTION": 14.53159902, "ECCENTRICITY": 0.0018301, "INCLINATION": 74.0239, "RA_OF_ASC_NODE": 202.3736, "ARG_OF_PERICENTER": 289.4484, "MEAN_ANOMALY": 70.47, "EPHEMERIS_TYPE": 0, "CLASSIFICATION_TYPE": "U", "NORAD_CAT_ID": 47068, "ELEMENT_SET_NO": 999, "REV_AT_EPOCH": 61765, "BSTAR": 0.0013850784, "MEAN_MOTION_DOT": 5.724e-05, "MEAN_MOTION_DDOT": 0}, "tle": {"line1": "1 47068U 93036BXY 25347.31961585  .00005724  00000+0  13851-2 0  9992", "line2": "2 47068  74.0239 202.3736 0018301 289.4484  70.4700 14.53159902617659"}}, "geometry": {"type": "Point", "coordinates": [177.14655287867845, -53.79398375468183]}}, {"type": "Feature", "properties": {"norad_id": 47073, "name": "COSMOS 2251 DEB", "group": "cosmos-2251-debris", "lat": 16.912424769577516, "lon": 13.841282950922512, "alt_km": 844.1383289529958, "timestamp": "2025-12-14T11:29:50.459052+00:00", "meta": {"OBJECT_NAME": "COSMOS 2251 DEB", "OBJECT_ID": "1993-036BYD", "EPOCH": "2025-12-10T22:57:37.610784", "MEAN_MOTION": 14.04716581, "ECCENTRICITY": 0.0162103, "INCLINATION": 74.0823, "RA_OF_ASC_NODE": 204.9451, "ARG_OF_PERICENTER": 243.6176, "MEAN_ANOMALY": 114.8243, "EPHEMERIS_TYPE": 0, "CLASSIFICATION_TYPE": "U", "NORAD_CAT_ID": 47073, "ELEMENT_SET_NO": 999, "REV_AT_EPOCH": 60336, "BSTAR": 0.00063847, "MEAN_MOTION_DOT": 1.125e-05, "MEAN_MOTION_DDOT": 0}, "tle": {"line1": "1 47073U 93036BYD 25344.95668531  .00001125  00000+0  63847-3 0  9992", "line2": "2 47073  74.0823 204.9451 0162103 243.6176 114.8243 14.04716581603362"}}, "geometry": {"type": "Point", "coordinates": [13.841282950922512, 16.912424769577516]}}, {"type": "Feature", "properties": {"norad_id": 47074, "name": "COSMOS 2251 DEB", "group": "cosmos-2251-debris", "lat": 28.18213231358986, "lon": 116.74328909387785, "alt_km": 874.6521744298825, "timestamp": "2025-12-14T11:29:50.459062+00:00", "meta": {"OBJECT_NAME": "COSMOS 2251 DEB", "OBJECT_ID": "1993-036BYE", "EPOCH": "2025-12-08T16:49:34.505184", "MEAN_MOTION": 14.3557053, "ECCENTRICITY": 0.01448795, "INCLINATION": 74.0911, "RA_OF_ASC_NODE": 316.0985, "ARG_OF_PERICENTER": 343.8802, "MEAN_ANOMALY": 196.5757, "EPHEMERIS_TYPE": 0, "CLASSIFICATION_TYPE": "U", "NORAD_CAT_ID": 47074, "ELEMENT_SET_NO": 999, "REV_AT_EPOCH": 2624, "BSTAR": 0.0031554894, "MEAN_MOTION_DOT": 0.00010228, "MEAN_MOTION_DDOT": 0}, "tle": {"line1": "1 47074U 93036BYE 25342.70109381  .00010228  00000+0  31555-2 0  9991", "line2": "2 47074  74.0911 316.0985 0144879 343.8802 196.5757 14.35570530 26246"}}, "geometry": {"type": "Point", "coordinates": [116.74328909387785, 28.18213231358986]}}, {"type": "Feature", "properties": {"norad_id": 47116, "name": "COSMOS 2251 DEB", "group": "cosmos-2251-debris", "lat": 27.704187704525943, "lon": -114.15534106687828, "alt_km": 562.8985288601571, "timestamp": "2025-12-14T11:29:50.459073+00:00", "meta": {"OBJECT_NAME": "COSMOS 2251 DEB", "OBJECT_ID": "1993-036BYJ", "EPOCH": "2025-12-11T00:06:23.501088", "MEAN_MOTION": 14.98044349, "ECCENTRICITY": 0.00215318, "INCLINATION": 74.0231, "RA_OF_ASC_NODE": 244.2359, "ARG_OF_PERICENTER": 338.282, "MEAN_ANOMALY": 38.4094, "EPHEMERIS_TYPE": 0, "CLASSIFICATION_TYPE": "U", "NORAD_CAT_ID": 47116, "ELEMENT_SET_NO": 999, "REV_AT_EPOCH": 59485, "BSTAR": 0.0031113289, "MEAN_MOTION_DOT": 0.0003712, "MEAN_MOTION_DDOT": 0}, "tle": {"line1": "1 47116U 93036BYJ 25345.00443867  .00037120  00000+0  31113-2 0  9994", "line2": "2 47116  74.0231 244.2359 0021531 338.2820  38.4094 14.98044349594850"}}, "geometry": {"type": "Point", "coordinates": [-114.15534106687828, 27.704187704525943]}}, {"type": "Feature", "properties": {"norad_id": 53093, "name": "COSMOS 2251 DEB", "group": "cosmos-2251-debris", "lat": -39.01924611755218, "lon": 131.64437154983727, "alt_km": 770.6294868021123, "timestamp": "2025-12-14T11:29:50.459084+00:00", "meta": {"OBJECT_NAME": "COSMOS 2251 DEB", "OBJECT_ID": "1993-036BYP", "EPOCH": "2025-12-13T07:50:02.246496", "MEAN_MOTION": 14.41888275, "ECCENTRICITY": 0.00191833, "INCLINATION": 74.0363, "RA_OF_ASC_NODE": 300.3675, "ARG_OF_PERICENTER": 17.2671, "MEAN_ANOMALY": 342.9134, "EPHEMERIS_TYPE": 0, "CLASSIFICATION_TYPE": "U", "NORAD_CAT_ID": 53093, "ELEMENT_SET_NO": 999, "REV_AT_EPOCH": 17734, "BSTAR": 0.0015030417, "MEAN_MOTION_DOT": 4.907e-05, "MEAN_MOTION_DDOT": 0}, "tle": {"line1": "1 53093U 93036BYP 25347.32641489  .00004907  00000+0  15030-2 0  9999", "line2": "2 53093  74.0363 300.3675 0019183  17.2671 342.9134 14.41888275177341"}}, "geometry": {"type": "Point", "coordinates": [131.64437154983727, -39.01924611755218]}}]}